[
    {
        "Altitude(m)": 604983.0528330029,
        "Argument of Periapsis(deg)": 0.0,
        "Eccentricity": 0.0,
        "Inclination(deg)": 60.0,
        "Latitude(deg)": -0.09253413557570055,
        "Longitude(deg)": 105.0839163563585,
        "Mean Anomaly(deg)": 180.0,
        "RAAN(deg)": 25.0,
        "Satellite Name": "Test1 121",
        "Satellite Number": 121,
        "Semi-Major Axis(m)": 6980739.136638005,
        "Time(s)": 0
    },
    {
        "Altitude(m)": 605055.3314994243,
        "Argument of Periapsis(deg)": 0.00010418945913296404,
        "Eccentricity": 0.0,
        "Inclination(deg)": 60.0,
        "Latitude(deg)": -0.6329441418671699,
        "Longitude(deg)": 105.35204100162719,
        "Mean Anomaly(deg)": 180.62010614546185,
        "RAAN(deg)": 24.99957995086026,
        "Satellite Name": "Test1 121",
        "Satellite Number": 121,
        "Semi-Major Axis(m)": 6980739.136638005,
        "Time(s)": 10
    },
    {
        "Altitude(m)": 605130.8192289782,
        "Argument of Periapsis(deg)": 0.0002083789182659281,
        "Eccentricity": 0.0,
        "Inclination(deg)": 60.0,
        "Latitude(deg)": -1.1733232305575432,
        "Longitude(deg)": 105.62022327423239,
        "Mean Anomaly(deg)": 181.24021229092364,
        "RAAN(deg)": 24.999159901720514,
        "Satellite Name": "Test1 121",
        "Satellite Number": 121,
        "Semi-Major Axis(m)": 6980739.136638005,
        "Time(s)": 20
    },
    {
        "Altitude(m)": 605209.5050587017,
        "Argument of Periapsis(deg)": 0.00031256837739889213,
        "Eccentricity": 0.0,
        "Inclination(deg)": 60.0,
        "Latitude(deg)": -1.7136543212269495,
        "Longitude(deg)": 105.88851756189152,
        "Mean Anomaly(deg)": 181.86031843638548,
        "RAAN(deg)": 24.998739852580773,
        "Satellite Name": "Test1 121",
        "Satellite Number": 121,
        "Semi-Major Axis(m)": 6980739.136638005,
        "Time(s)": 30
    },
    {
        "Altitude(m)": 605291.3765016885,
        "Argument of Periapsis(deg)": 0.0004167578365318562,
        "Eccentricity": 0.0,
        "Inclination(deg)": 60.0,
        "Latitude(deg)": -2.2539203154064915,
        "Longitude(deg)": 106.15697882010677,
        "Mean Anomaly(deg)": 182.4804245818473,
        "RAAN(deg)": 24.998319803441028,
        "Satellite Name": "Test1 121",
        "Satellite Number": 121,
        "Semi-Major Axis(m)": 6980739.136638005,
        "Time(s)": 40
    },
    {
        "Altitude(m)": 605376.4195504475,
        "Argument of Periapsis(deg)": 0.0005209472956648203,
        "Eccentricity": 0.0,
        "Inclination(deg)": 60.0,
        "Latitude(deg)": -2.7941040866665583,
        "Longitude(deg)": 106.42566159558561,
        "Mean Anomaly(deg)": 183.10053072730915,
        "RAAN(deg)": 24.997899754301287,
        "Satellite Name": "Test1 121",
        "Satellite Number": 121,
        "Semi-Major Axis(m)": 6980739.136638005,
        "Time(s)": 50
    },
    {
        "Altitude(m)": 605464.6186809435,
        "Argument of Periapsis(deg)": 0.0006251367547977843,
        "Eccentricity": 0.0,
        "Inclination(deg)": 60.0,
        "Latitude(deg)": -3.334188470664682,
        "Longitude(deg)": 106.6946205626171,
        "Mean Anomaly(deg)": 183.720636872771,
        "RAAN(deg)": 24.997479705161545,
        "Satellite Name": "Test1 121",
        "Satellite Number": 121,
        "Semi-Major Axis(m)": 6980739.136638005,
        "Time(s)": 60
    },
    {
        "Altitude(m)": 605555.9568574185,
        "Argument of Periapsis(deg)": 0.0007293262139307483,
        "Eccentricity": 0.0,
        "Inclination(deg)": 60.0,
        "Latitude(deg)": -3.874156255141137,
        "Longitude(deg)": 106.96391105956117,
        "Mean Anomaly(deg)": 184.34074301823284,
        "RAAN(deg)": 24.997059656021804,
        "Satellite Name": "Test1 121",
        "Satellite Number": 121,
        "Semi-Major Axis(m)": 6980739.136638005,
        "Time(s)": 70
    },
    {
        "Altitude(m)": 605650.4155379694,
        "Argument of Periapsis(deg)": 0.0008335156730637124,
        "Eccentricity": 0.0,
        "Inclination(deg)": 60.0,
        "Latitude(deg)": -4.413990169846089,
        "Longitude(deg)": 107.23358811260518,
        "Mean Anomaly(deg)": 184.96084916369463,
        "RAAN(deg)": 24.99663960688206,
        "Satellite Name": "Test1 121",
        "Satellite Number": 121,
        "Semi-Major Axis(m)": 6980739.136638005,
        "Time(s)": 80
    },
    {
        "Altitude(m)": 605747.9746808351,
        "Argument of Periapsis(deg)": 0.0009377051321966765,
        "Eccentricity": 0.0,
        "Inclination(deg)": 60.0,
        "Latitude(deg)": -4.953672876387057,
        "Longitude(deg)": 107.50370697256322,
        "Mean Anomaly(deg)": 185.58095530915648,
        "RAAN(deg)": 24.996219557742318,
        "Satellite Name": "Test1 121",
        "Satellite Number": 121,
        "Semi-Major Axis(m)": 6980739.136638005,
        "Time(s)": 90
    },
    {
        "Altitude(m)": 605848.6127514326,
        "Argument of Periapsis(deg)": 0.0010418945913296407,
        "Eccentricity": 0.0,
        "Inclination(deg)": 60.0,
        "Latitude(deg)": -5.493186957982496,
        "Longitude(deg)": 107.77432365187502,
        "Mean Anomaly(deg)": 186.2010614546183,
        "RAAN(deg)": 24.995799508602577,
        "Satellite Name": "Test1 121",
        "Satellite Number": 121,
        "Semi-Major Axis(m)": 6980739.136638005,
        "Time(s)": 100
    },
    {
        "Altitude(m)": 605952.30673016,
        "Argument of Periapsis(deg)": 0.0011460840504626045,
        "Eccentricity": 0.0,
        "Inclination(deg)": 60.0,
        "Latitude(deg)": -6.03251490910644,
        "Longitude(deg)": 108.04549394895834,
        "Mean Anomaly(deg)": 186.82116760008014,
        "RAAN(deg)": 24.99537945946283,
        "Satellite Name": "Test1 121",
        "Satellite Number": 121,
        "Semi-Major Axis(m)": 6980739.136638005,
        "Time(s)": 110
    },
    {
        "Altitude(m)": 606059.0321208751,
        "Argument of Periapsis(deg)": 0.0012502735095955685,
        "Eccentricity": 0.0,
        "Inclination(deg)": 60.0,
        "Latitude(deg)": -6.5716391250116,
        "Longitude(deg)": 108.3172739856918,
        "Mean Anomaly(deg)": 187.44127374554193,
        "RAAN(deg)": 24.994959410323087,
        "Satellite Name": "Test1 121",
        "Satellite Number": 121,
        "Semi-Major Axis(m)": 6980739.136638005,
        "Time(s)": 120
    },
    {
        "Altitude(m)": 606168.7629601521,
        "Argument of Periapsis(deg)": 0.0013544629687285324,
        "Eccentricity": 0.0,
        "Inclination(deg)": 60.0,
        "Latitude(deg)": -7.110541891116303,
        "Longitude(deg)": 108.5897207451829,
        "Mean Anomaly(deg)": 188.06137989100378,
        "RAAN(deg)": 24.994539361183342,
        "Satellite Name": "Test1 121",
        "Satellite Number": 121,
        "Semi-Major Axis(m)": 6980739.136638005,
        "Time(s)": 130
    },
    {
        "Altitude(m)": 606281.471827214,
        "Argument of Periapsis(deg)": 0.0014586524278614966,
        "Eccentricity": 0.0,
        "Inclination(deg)": 60.0,
        "Latitude(deg)": -7.649205372240285,
        "Longitude(deg)": 108.86289109697846,
        "Mean Anomaly(deg)": 188.68148603646563,
        "RAAN(deg)": 24.9941193120436,
        "Satellite Name": "Test1 121",
        "Satellite Number": 121,
        "Semi-Major Axis(m)": 6980739.136638005,
        "Time(s)": 140
    },
    {
        "Altitude(m)": 606397.1298546259,
        "Argument of Periapsis(deg)": 0.0015628418869944607,
        "Eccentricity": 0.0,
        "Inclination(deg)": 60.0,
        "Latitude(deg)": -8.18761160167546,
        "Longitude(deg)": 109.1368423354914,
        "Mean Anomaly(deg)": 189.30159218192748,
        "RAAN(deg)": 24.99369926290386,
        "Satellite Name": "Test1 121",
        "Satellite Number": 121,
        "Semi-Major Axis(m)": 6980739.136638005,
        "Time(s)": 150
    },
    {
        "Altitude(m)": 606515.7067396555,
        "Argument of Periapsis(deg)": 0.0016670313461274247,
        "Eccentricity": 0.0,
        "Inclination(deg)": 60.0,
        "Latitude(deg)": -8.725742470076717,
        "Longitude(deg)": 109.4116327188013,
        "Mean Anomaly(deg)": 189.9216983273893,
        "RAAN(deg)": 24.99327921376412,
        "Satellite Name": "Test1 121",
        "Satellite Number": 121,
        "Semi-Major Axis(m)": 6980739.136638005,
        "Time(s)": 160
    },
    {
        "Altitude(m)": 606637.1707563672,
        "Argument of Periapsis(deg)": 0.0017712208052603888,
        "Eccentricity": 0.0,
        "Inclination(deg)": 60.0,
        "Latitude(deg)": -9.263579714156707,
        "Longitude(deg)": 109.68732049498429,
        "Mean Anomaly(deg)": 190.54180447285114,
        "RAAN(deg)": 24.992859164624374,
        "Satellite Name": "Test1 121",
        "Satellite Number": 121,
        "Semi-Major Axis(m)": 6980739.136638005,
        "Time(s)": 170
    },
    {
        "Altitude(m)": 606761.488768403,
        "Argument of Periapsis(deg)": 0.001875410264393353,
        "Eccentricity": 0.0,
        "Inclination(deg)": 60.0,
        "Latitude(deg)": -9.801104905170241,
        "Longitude(deg)": 109.96396444174752,
        "Mean Anomaly(deg)": 191.16191061831293,
        "RAAN(deg)": 24.992439115484633,
        "Satellite Name": "Test1 121",
        "Satellite Number": 121,
        "Semi-Major Axis(m)": 6980739.136638005,
        "Time(s)": 180
    },
    {
        "Altitude(m)": 606888.6262424482,
        "Argument of Periapsis(deg)": 0.0019795997235263173,
        "Eccentricity": 0.0,
        "Inclination(deg)": 60.0,
        "Latitude(deg)": -10.338299437172296,
        "Longitude(deg)": 110.24162440652557,
        "Mean Anomaly(deg)": 191.78201676377478,
        "RAAN(deg)": 24.99201906634489,
        "Satellite Name": "Test1 121",
        "Satellite Number": 121,
        "Semi-Major Axis(m)": 6980739.136638005,
        "Time(s)": 190
    }
]